[{"OBJECT_NAME":"STARLINK-35519","OBJECT_ID":"2025-225K","EPOCH":"2026-03-09T13:27:35.445024","MEAN_MOTION":15.30182599,"ECCENTRICITY":0.0001012,"INCLINATION":53.1573,"RA_OF_ASC_NODE":165.9062,"ARG_OF_PERICENTER":85.3609,"MEAN_ANOMALY":274.7507,"EPHEMERIS_TYPE":0,"CLASSIFICATION_TYPE":"U","NORAD_CAT_ID":65919,"ELEMENT_SET_NO":999,"REV_AT_EPOCH":2439,"BSTAR":0.00075334,"MEAN_MOTION_DOT":0.00022007,"MEAN_MOTION_DDOT":0},{"OBJECT_NAME":"CZ-4C R\/B","OBJECT_ID":"2013-037D","EPOCH":"2026-03-09T18:06:56.075616","MEAN_MOTION":15.35625196,"ECCENTRICITY":0.00667653,"INCLINATION":97.9623,"RA_OF_ASC_NODE":344.221,"ARG_OF_PERICENTER":268.5523,"MEAN_ANOMALY":90.807,"EPHEMERIS_TYPE":0,"CLASSIFICATION_TYPE":"U","NORAD_CAT_ID":39211,"ELEMENT_SET_NO":999,"REV_AT_EPOCH":69561,"BSTAR":0.000391022,"MEAN_MOTION_DOT":0.00014492,"MEAN_MOTION_DDOT":0}]
